{
  "type": "FeatureCollection",
  "features": [
    {
      "type": "Feature",
      "properties": {
        "norad_id": 30073,
        "name": "FENGYUN 1C DEB",
        "group": "fengyun-1c-debris",
        "lat": 57.71596983136663,
        "lon": 168.0386688901698,
        "alt_km": 845.8886842131906,
        "timestamp": "2025-12-24T22:42:22.304803+00:00",
        "meta_object_name": "FENGYUN 1C DEB",
        "meta_object_id": "1999-025QA",
        "meta_epoch": "2025-12-22T11:29:14.586720",
        "meta_mean_motion": 14.18720615,
        "meta_eccentricity": 0.00529475,
        "meta_inclination": 99.4126,
        "meta_ra_of_asc_node": 330.1997,
        "meta_arg_of_pericenter": 253.1088,
        "meta_mean_anomaly": 232.9927,
        "meta_ephemeris_type": 0,
        "meta_classification_type": "U",
        "meta_norad_cat_id": 30073,
        "meta_element_set_no": 999,
        "meta_rev_at_epoch": 97063,
        "meta_bstar": 0.0013275965,
        "meta_mean_motion_dot": 2.746e-05,
        "meta_mean_motion_ddot": 0,
        "tle_line1": "1 30073U 99025QA  25356.47864105  .00002746  00000+0  13276-2 0  9993",
        "tle_line2": "2 30073  99.4126 330.1997 0052947 253.1088 232.9927 14.18720615970636"
      },
      "geometry": {
        "type": "Point",
        "coordinates": [
          168.0386688901698,
          57.71596983136663
        ]
      }
    },
    {
      "type": "Feature",
      "properties": {
        "norad_id": 30074,
        "name": "FENGYUN 1C DEB",
        "group": "fengyun-1c-debris",
        "lat": -19.72973478717815,
        "lon": 68.72542130542571,
        "alt_km": 906.1401712139786,
        "timestamp": "2025-12-24T22:42:22.304813+00:00",
        "meta_object_name": "FENGYUN 1C DEB",
        "meta_object_id": "1999-025QB",
        "meta_epoch": "2025-12-21T03:01:28.048512",
        "meta_mean_motion": 14.12895962,
        "meta_eccentricity": 0.00969654,
        "meta_inclination": 99.1289,
        "meta_ra_of_asc_node": 61.526,
        "meta_arg_of_pericenter": 128.6907,
        "meta_mean_anomaly": 232.2986,
        "meta_ephemeris_type": 0,
        "meta_classification_type": "U",
        "meta_norad_cat_id": 30074,
        "meta_element_set_no": 999,
        "meta_rev_at_epoch": 96780,
        "meta_bstar": 0.0010443796,
        "meta_mean_motion_dot": 1.987e-05,
        "meta_mean_motion_ddot": 0,
        "tle_line1": "1 30074U 99025QB  25355.12601908  .00001987  00000+0  10444-2 0  9995",
        "tle_line2": "2 30074  99.1289  61.5260 0096965 128.6907 232.2986 14.12895962967801"
      },
      "geometry": {
        "type": "Point",
        "coordinates": [
          68.72542130542571,
          -19.72973478717815
        ]
      }
    },
    {
      "type": "Feature",
      "properties": {
        "norad_id": 30075,
        "name": "FENGYUN 1C DEB",
        "group": "fengyun-1c-debris",
        "lat": -78.60862553944544,
        "lon": 174.43732326737705,
        "alt_km": 959.1464001540289,
        "timestamp": "2025-12-24T22:42:22.304824+00:00",
        "meta_object_name": "FENGYUN 1C DEB",
        "meta_object_id": "1999-025QC",
        "meta_epoch": "2025-12-24T02:44:48.123168",
        "meta_mean_motion": 13.92537531,
        "meta_eccentricity": 0.00914269,
        "meta_inclination": 99.3601,
        "meta_ra_of_asc_node": 48.5449,
        "meta_arg_of_pericenter": 146.5077,
        "meta_mean_anomaly": 269.1387,
        "meta_ephemeris_type": 0,
        "meta_classification_type": "U",
        "meta_norad_cat_id": 30075,
        "meta_element_set_no": 999,
        "meta_rev_at_epoch": 96223,
        "meta_bstar": 4.03444e-05,
        "meta_mean_motion_dot": 9e-08,
        "meta_mean_motion_ddot": 0,
        "tle_line1": "1 30075U 99025QC  25358.11444587  .00000009  00000+0  40344-4 0  9994",
        "tle_line2": "2 30075  99.3601  48.5449 0091426 146.5077 269.1387 13.92537531962238"
      },
      "geometry": {
        "type": "Point",
        "coordinates": [
          174.43732326737705,
          -78.60862553944544
        ]
      }
    },
    {
      "type": "Feature",
      "properties": {
        "norad_id": 30076,
        "name": "FENGYUN 1C DEB",
        "group": "fengyun-1c-debris",
        "lat": -36.06811459659175,
        "lon": -7.878364858441775,
        "alt_km": 999.7592798857131,
        "timestamp": "2025-12-24T22:42:22.304834+00:00",
        "meta_object_name": "FENGYUN 1C DEB",
        "meta_object_id": "1999-025QD",
        "meta_epoch": "2025-12-23T10:51:05.357376",
        "meta_mean_motion": 13.76297907,
        "meta_eccentricity": 0.01757376,
        "meta_inclination": 99.2393,
        "meta_ra_of_asc_node": 343.8629,
        "meta_arg_of_pericenter": 65.7487,
        "meta_mean_anomaly": 61.6486,
        "meta_ephemeris_type": 0,
        "meta_classification_type": "U",
        "meta_norad_cat_id": 30076,
        "meta_element_set_no": 999,
        "meta_rev_at_epoch": 95041,
        "meta_bstar": 0.00028623377,
        "meta_mean_motion_dot": 2.71e-06,
        "meta_mean_motion_ddot": 0,
        "tle_line1": "1 30076U 99025QD  25357.45214534  .00000271  00000+0  28623-3 0  9994",
        "tle_line2": "2 30076  99.2393 343.8629 0175737  65.7487  61.6486 13.76297907950416"
      },
      "geometry": {
        "type": "Point",
        "coordinates": [
          -7.878364858441775,
          -36.06811459659175
        ]
      }
    },
    {
      "type": "Feature",
      "properties": {
        "norad_id": 30077,
        "name": "FENGYUN 1C DEB",
        "group": "fengyun-1c-debris",
        "lat": 19.93723699608695,
        "lon": -162.57568757724783,
        "alt_km": 863.9098015004565,
        "timestamp": "2025-12-24T22:42:22.304861+00:00",
        "meta_object_name": "FENGYUN 1C DEB",
        "meta_object_id": "1999-025QE",
        "meta_epoch": "2025-12-23T19:27:58.203648",
        "meta_mean_motion": 14.07080144,
        "meta_eccentricity": 0.00206314,
        "meta_inclination": 98.7574,
        "meta_ra_of_asc_node": 13.1198,
        "meta_arg_of_pericenter": 231.5956,
        "meta_mean_anomaly": 302.1956,
        "meta_ephemeris_type": 0,
        "meta_classification_type": "U",
        "meta_norad_cat_id": 30077,
        "meta_element_set_no": 999,
        "meta_rev_at_epoch": 97268,
        "meta_bstar": 6.8550007e-05,
        "meta_mean_motion_dot": 7.2e-07,
        "meta_mean_motion_ddot": 0,
        "tle_line1": "1 30077U 99025QE  25357.81109032  .00000072  00000+0  68550-4 0  9994",
        "tle_line2": "2 30077  98.7574  13.1198 0020631 231.5956 302.1956 14.07080144972682"
      },
      "geometry": {
        "type": "Point",
        "coordinates": [
          -162.57568757724783,
          19.93723699608695
        ]
      }
    },
    {
      "type": "Feature",
      "properties": {
        "norad_id": 30078,
        "name": "FENGYUN 1C DEB",
        "group": "fengyun-1c-debris",
        "lat": 35.32230351371971,
        "lon": 67.52755744177067,
        "alt_km": 845.6211069681522,
        "timestamp": "2025-12-24T22:42:22.304875+00:00",
        "meta_object_name": "FENGYUN 1C DEB",
        "meta_object_id": "1999-025QF",
        "meta_epoch": "2025-12-24T04:13:57.044352",
        "meta_mean_motion": 14.23197802,
        "meta_eccentricity": 0.0053415,
        "meta_inclination": 98.8316,
        "meta_ra_of_asc_node": 73.0807,
        "meta_arg_of_pericenter": 247.2687,
        "meta_mean_anomaly": 166.7918,
        "meta_ephemeris_type": 0,
        "meta_classification_type": "U",
        "meta_norad_cat_id": 30078,
        "meta_element_set_no": 999,
        "meta_rev_at_epoch": 97276,
        "meta_bstar": 0.0013383814,
        "meta_mean_motion_dot": 3.026e-05,
        "meta_mean_motion_ddot": 0,
        "tle_line1": "1 30078U 99025QF  25358.17635468  .00003026  00000+0  13384-2 0  9997",
        "tle_line2": "2 30078  98.8316  73.0807 0053415 247.2687 166.7918 14.23197802972760"
      },
      "geometry": {
        "type": "Point",
        "coordinates": [
          67.52755744177067,
          35.32230351371971
        ]
      }
    },
    {
      "type": "Feature",
      "properties": {
        "norad_id": 30079,
        "name": "FENGYUN 1C DEB",
        "group": "fengyun-1c-debris",
        "lat": -49.114804144368094,
        "lon": -136.23983528958502,
        "alt_km": 846.8936783013496,
        "timestamp": "2025-12-24T22:42:22.304885+00:00",
        "meta_object_name": "FENGYUN 1C DEB",
        "meta_object_id": "1999-025QG",
        "meta_epoch": "2025-12-24T03:00:34.604064",
        "meta_mean_motion": 14.00799753,
        "meta_eccentricity": 0.00850299,
        "meta_inclination": 99.0326,
        "meta_ra_of_asc_node": 53.5359,
        "meta_arg_of_pericenter": 266.9307,
        "meta_mean_anomaly": 147.1176,
        "meta_ephemeris_type": 0,
        "meta_classification_type": "U",
        "meta_norad_cat_id": 30079,
        "meta_element_set_no": 999,
        "meta_rev_at_epoch": 96697,
        "meta_bstar": 0.00013464991,
        "meta_mean_motion_dot": 1.62e-06,
        "meta_mean_motion_ddot": 0,
        "tle_line1": "1 30079U 99025QG  25358.12540051  .00000162  00000+0  13465-3 0  9995",
        "tle_line2": "2 30079  99.0326  53.5359 0085029 266.9307 147.1176 14.00799753966976"
      },
      "geometry": {
        "type": "Point",
        "coordinates": [
          -136.23983528958502,
          -49.114804144368094
        ]
      }
    }
  ]
}